{"fetched_at":"2026-03-29T16:36:15Z","count":15609,"tles":[{"name":"STARLINK-34898","line1":"1 65895U 25224P   26087.82090313  .00027704  00000+0  94412-3 0  9999","line2":"2 65895  53.1585 282.4629 0001195  83.4966 276.6171 15.30196175 27802","category":"Starlink"}]}