{
  "norad_id": 65895,
  "name": "STARLINK-34898",
  "history": [
    {
      "epoch": "2026-03-28T19:42:06.030432",
      "apogee_km": 476.0455356743669,
      "perigee_km": 474.40744473293944,
      "latitude_deg": -25.923512257869604,
      "longitude_deg": 128.30670047993772,
      "semi_major_axis_km": 6853.363490203653,
      "eccentricity": 0.00011951,
      "inclination_deg": 53.1585,
      "raan_deg": 282.4629,
      "arg_perigee_deg": 83.4966,
      "mean_anomaly_deg": 276.6171,
      "mean_motion_rev_day": 15.30196175
    }
  ]
}